{"type": "FeatureCollection", "features": [ {"type": "Feature", "properties": {"norad_id": 66677, "name": "TRANSPORTER-15M", "group": "last-30-days", "lat": -70.42410719516212, "lon": 93.37670145155556, "alt_km": 518.4066964338181, "timestamp": "2025-12-26T07:29:17.192136+00:00", "meta": {"OBJECT_NAME": "TRANSPORTER-15M", "OBJECT_ID": "2025-276M", "EPOCH": "2025-12-25T22:18:33.616800", "MEAN_MOTION": 15.17569428, "ECCENTRICITY": 0.00038754, "INCLINATION": 97.4378, "RA_OF_ASC_NODE": 71.4478, "ARG_OF_PERICENTER": 249.8017, "MEAN_ANOMALY": 110.28, "EPHEMERIS_TYPE": 0, "CLASSIFICATION_TYPE": "U", "NORAD_CAT_ID": 66677, "ELEMENT_SET_NO": 999, "REV_AT_EPOCH": 412, "BSTAR": 0.00069384313, "MEAN_MOTION_DOT": 0.00013886, "MEAN_MOTION_DDOT": 0}, "tle": {"line1": "1 66677U 25276M   25359.92955575  .00013886  00000+0  69384-3 0  9993", "line2": "2 66677  97.4378  71.4478 0003875 249.8017 110.2800 15.17569428  4124"}}, "geometry": {"type": "Point", "coordinates": [93.37670145155556, -70.42410719516212]}}, {"type": "Feature", "properties": {"norad_id": 66678, "name": "TRANSPORTER-15N", "group": "last-30-days", "lat": -60.56763542116778, "lon": -121.58983808874069, "alt_km": 526.0712450999899, "timestamp": "2025-12-26T07:29:17.192145+00:00", "meta": {"OBJECT_NAME": "TRANSPORTER-15N", "OBJECT_ID": "2025-276N", "EPOCH": "2025-12-25T22:30:42.399936", "MEAN_MOTION": 15.16984925, "ECCENTRICITY": 0.00064935, "INCLINATION": 97.4382, "RA_OF_ASC_NODE": 71.4317, "ARG_OF_PERICENTER": 34.5529, "MEAN_ANOMALY": 325.6125, "EPHEMERIS_TYPE": 0, "CLASSIFICATION_TYPE": "U", "NORAD_CAT_ID": 66678, "ELEMENT_SET_NO": 999, "REV_AT_EPOCH": 412, "BSTAR": 0.00044143963, "MEAN_MOTION_DOT": 8.661e-05, "MEAN_MOTION_DDOT": 0}, "tle": {"line1": "1 66678U 25276N   25359.93799074  .00008661  00000+0  44144-3 0  9997", "line2": "2 66678  97.4382  71.4317 0006493  34.5529 325.6125 15.16984925  4122"}}, "geometry": {"type": "Point", "coordinates": [-121.58983808874069, -60.56763542116778]}}, {"type": "Feature", "properties": {"norad_id": 66679, "name": "TRANSPORTER-15P", "group": "last-30-days", "lat": -51.39579567451108, "lon": -117.62002183257783, "alt_km": 519.5271470716616, "timestamp": "2025-12-26T07:29:17.192155+00:00", "meta": {"OBJECT_NAME": "TRANSPORTER-15P", "OBJECT_ID": "2025-276P", "EPOCH": "2025-12-25T22:33:05.287392", "MEAN_MOTION": 15.1671809, "ECCENTRICITY": 0.00047446, "INCLINATION": 97.4359, "RA_OF_ASC_NODE": 71.4297, "ARG_OF_PERICENTER": 243.6653, "MEAN_ANOMALY": 116.4093, "EPHEMERIS_TYPE": 0, "CLASSIFICATION_TYPE": "U", "NORAD_CAT_ID": 66679, "ELEMENT_SET_NO": 999, "REV_AT_EPOCH": 412, "BSTAR": 0.00021071395, "MEAN_MOTION_DOT": 4.065e-05, "MEAN_MOTION_DDOT": 0}, "tle": {"line1": "1 66679U 25276P   25359.93964453  .00004065  00000+0  21071-3 0  9991", "line2": "2 66679  97.4359  71.4297 0004744 243.6653 116.4093 15.16718090  4120"}}, "geometry": {"type": "Point", "coordinates": [-117.62002183257783, -51.39579567451108]}}, {"type": "Feature", "properties": {"norad_id": 66680, "name": "TRANSPORTER-15Q", "group": "last-30-days", "lat": -60.910899589992255, "lon": -121.77163212731219, "alt_km": 519.1373718055711, "timestamp": "2025-12-26T07:29:17.192169+00:00", "meta": {"OBJECT_NAME": "TRANSPORTER-15Q", "OBJECT_ID": "2025-276Q", "EPOCH": "2025-12-25T05:05:38.818176", "MEAN_MOTION": 15.16866532, "ECCENTRICITY": 0.000484, "INCLINATION": 97.4407, "RA_OF_ASC_NODE": 70.7353, "ARG_OF_PERICENTER": 236.3987, "MEAN_ANOMALY": 123.6784, "EPHEMERIS_TYPE": 0, "CLASSIFICATION_TYPE": "U", "NORAD_CAT_ID": 66680, "ELEMENT_SET_NO": 999, "REV_AT_EPOCH": 401, "BSTAR": 0.00055928, "MEAN_MOTION_DOT": 0.00010954, "MEAN_MOTION_DDOT": 0}, "tle": {"line1": "1 66680U 25276Q   25359.21225484  .00010954  00000+0  55928-3 0  9990", "line2": "2 66680  97.4407  70.7353 0004840 236.3987 123.6784 15.16866532  4017"}}, "geometry": {"type": "Point", "coordinates": [-121.77163212731219, -60.910899589992255]}}, {"type": "Feature", "properties": {"norad_id": 66681, "name": "TRANSPORTER-15R", "group": "last-30-days", "lat": -79.54804504777238, "lon": 116.852904684542, "alt_km": 517.3200020752693, "timestamp": "2025-12-26T07:29:17.192179+00:00", "meta": {"OBJECT_NAME": "TRANSPORTER-15R", "OBJECT_ID": "2025-276R", "EPOCH": "2025-12-25T22:21:24.113376", "MEAN_MOTION": 15.1755492, "ECCENTRICITY": 0.00048911, "INCLINATION": 97.433, "RA_OF_ASC_NODE": 71.43, "ARG_OF_PERICENTER": 262.2066, "MEAN_ANOMALY": 97.8613, "EPHEMERIS_TYPE": 0, "CLASSIFICATION_TYPE": "U", "NORAD_CAT_ID": 66681, "ELEMENT_SET_NO": 999, "REV_AT_EPOCH": 412, "BSTAR": 0.00086526985, "MEAN_MOTION_DOT": 0.00017336, "MEAN_MOTION_DDOT": 0}, "tle": {"line1": "1 66681U 25276R   25359.93152909  .00017336  00000+0  86527-3 0  9991", "line2": "2 66681  97.4330  71.4300 0004891 262.2066  97.8613 15.17554920  4126"}}, "geometry": {"type": "Point", "coordinates": [116.852904684542, -79.54804504777238]}}, {"type": "Feature", "properties": {"norad_id": 66682, "name": "TRANSPORTER-15S", "group": "last-30-days", "lat": -64.00091559373664, "lon": -123.72300438348364, "alt_km": 530.4362086245937, "timestamp": "2025-12-26T07:29:17.192189+00:00", "meta": {"OBJECT_NAME": "TRANSPORTER-15S", "OBJECT_ID": "2025-276S", "EPOCH": "2025-12-25T17:43:14.366208", "MEAN_MOTION": 15.14261723, "ECCENTRICITY": 0.00159397, "INCLINATION": 97.446, "RA_OF_ASC_NODE": 71.2708, "ARG_OF_PERICENTER": 165.4639, "MEAN_ANOMALY": 194.7055, "EPHEMERIS_TYPE": 0, "CLASSIFICATION_TYPE": "U", "NORAD_CAT_ID": 66682, "ELEMENT_SET_NO": 999, "REV_AT_EPOCH": 409, "BSTAR": -0.024579255, "MEAN_MOTION_DOT": -0.00425729, "MEAN_MOTION_DDOT": 0}, "tle": {"line1": "1 66682U 25276S   25359.73836072 -.00425729  00000+0 -24579-1 0  9998", "line2": "2 66682  97.4460  71.2708 0015939 165.4639 194.7055 15.14261723  4092"}}, "geometry": {"type": "Point", "coordinates": [-123.72300438348364, -64.00091559373664]}}, {"type": "Feature", "properties": {"norad_id": 66683, "name": "TRANSPORTER-15T", "group": "last-30-days", "lat": -73.13204498512637, "lon": -133.71336839574016, "alt_km": 519.0923174543286, "timestamp": "2025-12-26T07:29:17.192198+00:00", "meta": {"OBJECT_NAME": "TRANSPORTER-15T", "OBJECT_ID": "2025-276T", "EPOCH": "2025-12-25T22:27:11.386080", "MEAN_MOTION": 15.1706167, "ECCENTRICITY": 0.0004846, "INCLINATION": 97.4445, "RA_OF_ASC_NODE": 71.4633, "ARG_OF_PERICENTER": 228.0343, "MEAN_ANOMALY": 132.0478, "EPHEMERIS_TYPE": 0, "CLASSIFICATION_TYPE": "U", "NORAD_CAT_ID": 66683, "ELEMENT_SET_NO": 999, "REV_AT_EPOCH": 412, "BSTAR": 0.00026911148, "MEAN_MOTION_DOT": 5.262e-05, "MEAN_MOTION_DDOT": 0}, "tle": {"line1": "1 66683U 25276T   25359.93554845  .00005262  00000+0  26911-3 0  9994", "line2": "2 66683  97.4445  71.4633 0004846 228.0343 132.0478 15.17061670  4128"}}, "geometry": {"type": "Point", "coordinates": [-133.71336839574016, -73.13204498512637]}}, {"type": "Feature", "properties": {"norad_id": 66684, "name": "TRANSPORTER-15U", "group": "last-30-days", "lat": -80.53699643884029, "lon": 123.54777759975889, "alt_km": 519.0558822796138, "timestamp": "2025-12-26T07:29:17.192236+00:00", "meta": {"OBJECT_NAME": "TRANSPORTER-15U", "OBJECT_ID": "2025-276U", "EPOCH": "2025-12-25T22:21:45.244224", "MEAN_MOTION": 15.17392084, "ECCENTRICITY": 0.00046216, "INCLINATION": 97.4469, "RA_OF_ASC_NODE": 71.4767, "ARG_OF_PERICENTER": 226.253, "MEAN_ANOMALY": 133.8321, "EPHEMERIS_TYPE": 0, "CLASSIFICATION_TYPE": "U", "NORAD_CAT_ID": 66684, "ELEMENT_SET_NO": 999, "REV_AT_EPOCH": 412, "BSTAR": 0.00054572906, "MEAN_MOTION_DOT": 0.00010848, "MEAN_MOTION_DDOT": 0}, "tle": {"line1": "1 66684U 25276U   25359.93177366  .00010848  00000+0  54573-3 0  9995", "line2": "2 66684  97.4469  71.4767 0004621 226.2530 133.8321 15.17392084  4124"}}, "geometry": {"type": "Point", "coordinates": [123.54777759975889, -80.53699643884029]}}, {"type": "Feature", "properties": {"norad_id": 66685, "name": "TRANSPORTER-15V", "group": "last-30-days", "lat": -73.399429631328, "lon": 97.83765751158171, "alt_km": 518.2943833021673, "timestamp": "2025-12-26T07:29:17.192246+00:00", "meta": {"OBJECT_NAME": "TRANSPORTER-15V", "OBJECT_ID": "2025-276V", "EPOCH": "2025-12-25T22:19:25.375584", "MEAN_MOTION": 15.17559853, "ECCENTRICITY": 0.00040188, "INCLINATION": 97.4413, "RA_OF_ASC_NODE": 71.4598, "ARG_OF_PERICENTER": 249.4175, "MEAN_ANOMALY": 110.6627, "EPHEMERIS_TYPE": 0, "CLASSIFICATION_TYPE": "U", "NORAD_CAT_ID": 66685, "ELEMENT_SET_NO": 999, "REV_AT_EPOCH": 412, "BSTAR": 0.0007236312, "MEAN_MOTION_DOT": 0.00014482, "MEAN_MOTION_DDOT": 0}, "tle": {"line1": "1 66685U 25276V   25359.93015481  .00014482  00000+0  72363-3 0  9990", "line2": "2 66685  97.4413  71.4598 0004018 249.4175 110.6627 15.17559853  4129"}}, "geometry": {"type": "Point", "coordinates": [97.83765751158171, -73.399429631328]}}, {"type": "Feature", "properties": {"norad_id": 66686, "name": "TRANSPORTER-15W", "group": "last-30-days", "lat": -80.89215756044678, "lon": 126.43380597257811, "alt_km": 508.5673572989217, "timestamp": "2025-12-26T07:29:17.192258+00:00", "meta": {"OBJECT_NAME": "TRANSPORTER-15W", "OBJECT_ID": "2025-276W", "EPOCH": "2025-12-24T16:18:47.855520", "MEAN_MOTION": 15.18035485, "ECCENTRICITY": 0.00181838, "INCLINATION": 97.4405, "RA_OF_ASC_NODE": 70.2223, "ARG_OF_PERICENTER": 243.6801, "MEAN_ANOMALY": 116.2566, "EPHEMERIS_TYPE": 0, "CLASSIFICATION_TYPE": "U", "NORAD_CAT_ID": 66686, "ELEMENT_SET_NO": 999, "REV_AT_EPOCH": 393, "BSTAR": 0.0029615296, "MEAN_MOTION_DOT": 0.00060911, "MEAN_MOTION_DDOT": 0}, "tle": {"line1": "1 66686U 25276W   25358.67972055  .00060911  00000+0  29615-2 0  9999", "line2": "2 66686  97.4405  70.2223 0018183 243.6801 116.2566 15.18035485  3936"}}, "geometry": {"type": "Point", "coordinates": [126.43380597257811, -80.89215756044678]}}]}